{"type": "FeatureCollection", "features": [ {"type": "Feature", "properties": {"norad_id": 38953, "name": "BEIDOU-2 G6 (C02)", "group": "beidou", "lat": 3.9630688354417627, "lon": 172.35630105066235, "alt_km": 35816.84219394604, "timestamp": "2025-12-27T23:26:37.627744+00:00", "meta": {"OBJECT_NAME": "BEIDOU-2 G6 (C02)", "OBJECT_ID": "2012-059A", "EPOCH": "2025-12-26T23:45:51.765408", "MEAN_MOTION": 1.00274409, "ECCENTRICITY": 0.00079487, "INCLINATION": 3.9833, "RA_OF_ASC_NODE": 75.3705, "ARG_OF_PERICENTER": 293.6669, "MEAN_ANOMALY": 167.1065, "EPHEMERIS_TYPE": 0, "CLASSIFICATION_TYPE": "U", "NORAD_CAT_ID": 38953, "ELEMENT_SET_NO": 999, "REV_AT_EPOCH": 4818, "BSTAR": 0, "MEAN_MOTION_DOT": -1.55e-06, "MEAN_MOTION_DDOT": 0}, "tle": {"line1": "1 38953U 12059A   25360.99018247 -.00000155  00000+0  00000+0 0  9991", "line2": "2 38953   3.9833  75.3705 0007948 293.6669 167.1065  1.00274409 48186"}}, "geometry": {"type": "Point", "coordinates": [172.35630105066235, 3.9630688354417627]}}, {"type": "Feature", "properties": {"norad_id": 40549, "name": "BEIDOU-3S IGSO-1S (C31)", "group": "beidou", "lat": -44.08281694497003, "lon": 173.16571098660108, "alt_km": 35691.61561972734, "timestamp": "2025-12-27T23:26:37.627756+00:00", "meta": {"OBJECT_NAME": "BEIDOU-3S IGSO-1S (C31)", "OBJECT_ID": "2015-019A", "EPOCH": "2025-12-26T19:27:32.429664", "MEAN_MOTION": 1.00290016, "ECCENTRICITY": 0.00365106, "INCLINATION": 49.5251, "RA_OF_ASC_NODE": 297.5457, "ARG_OF_PERICENTER": 194.1839, "MEAN_ANOMALY": 350.566, "EPHEMERIS_TYPE": 0, "CLASSIFICATION_TYPE": "U", "NORAD_CAT_ID": 40549, "ELEMENT_SET_NO": 999, "REV_AT_EPOCH": 3934, "BSTAR": 0, "MEAN_MOTION_DOT": -1.81e-06, "MEAN_MOTION_DDOT": 0}, "tle": {"line1": "1 40549U 15019A   25360.81079201 -.00000181  00000+0  00000+0 0  9991", "line2": "2 40549  49.5251 297.5457 0036510 194.1839 350.5660  1.00290016 39342"}}, "geometry": {"type": "Point", "coordinates": [173.16571098660108, -44.08281694497003]}}, {"type": "Feature", "properties": {"norad_id": 40748, "name": "BEIDOU-3S M2S (C58)", "group": "beidou", "lat": -31.64147682410964, "lon": -77.60123626561713, "alt_km": 21510.445605286142, "timestamp": "2025-12-27T23:26:37.627767+00:00", "meta": {"OBJECT_NAME": "BEIDOU-3S M2S (C58)", "OBJECT_ID": "2015-037A", "EPOCH": "2025-12-26T23:05:37.447872", "MEAN_MOTION": 1.86229536, "ECCENTRICITY": 0.00118283, "INCLINATION": 55.026, "RA_OF_ASC_NODE": 307.9762, "ARG_OF_PERICENTER": 271.2374, "MEAN_ANOMALY": 88.6344, "EPHEMERIS_TYPE": 0, "CLASSIFICATION_TYPE": "U", "NORAD_CAT_ID": 40748, "ELEMENT_SET_NO": 999, "REV_AT_EPOCH": 7091, "BSTAR": 0, "MEAN_MOTION_DOT": -5.8e-07, "MEAN_MOTION_DDOT": 0}, "tle": {"line1": "1 40748U 15037A   25360.96223898 -.00000058  00000+0  00000+0 0  9994", "line2": "2 40748  55.0260 307.9762 0011828 271.2374  88.6344  1.86229536 70915"}}, "geometry": {"type": "Point", "coordinates": [-77.60123626561713, -31.64147682410964]}}, {"type": "Feature", "properties": {"norad_id": 40749, "name": "BEIDOU-3S M1S (C57)", "group": "beidou", "lat": 10.375937526482748, "lon": 120.55593470870943, "alt_km": 21534.679435816706, "timestamp": "2025-12-27T23:26:37.627778+00:00", "meta": {"OBJECT_NAME": "BEIDOU-3S M1S (C57)", "OBJECT_ID": "2015-037B", "EPOCH": "2025-12-27T04:34:21.423072", "MEAN_MOTION": 1.86253811, "ECCENTRICITY": 0.0003729, "INCLINATION": 55.0221, "RA_OF_ASC_NODE": 307.9572, "ARG_OF_PERICENTER": 3.3585, "MEAN_ANOMALY": 356.651, "EPHEMERIS_TYPE": 0, "CLASSIFICATION_TYPE": "U", "NORAD_CAT_ID": 40749, "ELEMENT_SET_NO": 999, "REV_AT_EPOCH": 7092, "BSTAR": 0, "MEAN_MOTION_DOT": -5.9e-07, "MEAN_MOTION_DDOT": 0}, "tle": {"line1": "1 40749U 15037B   25361.19052573 -.00000059  00000+0  00000+0 0  9992", "line2": "2 40749  55.0221 307.9572 0003729   3.3585 356.6510  1.86253811 70928"}}, "geometry": {"type": "Point", "coordinates": [120.55593470870943, 10.375937526482748]}}, {"type": "Feature", "properties": {"norad_id": 40938, "name": "BEIDOU-3S IGSO-2S (C56)", "group": "beidou", "lat": -47.603852221857586, "lon": -168.38861979539487, "alt_km": 35816.823994478036, "timestamp": "2025-12-27T23:26:37.627790+00:00", "meta": {"OBJECT_NAME": "BEIDOU-3S IGSO-2S (C56)", "OBJECT_ID": "2015-053A", "EPOCH": "2025-12-27T13:45:43.029216", "MEAN_MOTION": 1.00266563, "ECCENTRICITY": 0.0060728, "INCLINATION": 49.4874, "RA_OF_ASC_NODE": 260.8314, "ARG_OF_PERICENTER": 188.237, "MEAN_ANOMALY": 309.3634, "EPHEMERIS_TYPE": 0, "CLASSIFICATION_TYPE": "U", "NORAD_CAT_ID": 40938, "ELEMENT_SET_NO": 999, "REV_AT_EPOCH": 3763, "BSTAR": 0, "MEAN_MOTION_DOT": -1.27e-06, "MEAN_MOTION_DDOT": 0}, "tle": {"line1": "1 40938U 15053A   25361.57341469 -.00000127  00000+0  00000+0 0  9993", "line2": "2 40938  49.4874 260.8314 0060728 188.2370 309.3634  1.00266563 37634"}}, "geometry": {"type": "Point", "coordinates": [-168.38861979539487, -47.603852221857586]}}, {"type": "Feature", "properties": {"norad_id": 41434, "name": "BEIDOU-2 IGSO-6 (C13)", "group": "beidou", "lat": 32.48480993611053, "lon": -161.80990475208088, "alt_km": 35771.41074319978, "timestamp": "2025-12-27T23:26:37.627801+00:00", "meta": {"OBJECT_NAME": "BEIDOU-2 IGSO-6 (C13)", "OBJECT_ID": "2016-021A", "EPOCH": "2025-12-25T02:21:14.682240", "MEAN_MOTION": 1.00290736, "ECCENTRICITY": 0.00608236, "INCLINATION": 59.9818, "RA_OF_ASC_NODE": 39.7747, "ARG_OF_PERICENTER": 230.5129, "MEAN_ANOMALY": 312.5474, "EPHEMERIS_TYPE": 0, "CLASSIFICATION_TYPE": "U", "NORAD_CAT_ID": 41434, "ELEMENT_SET_NO": 999, "REV_AT_EPOCH": 3573, "BSTAR": 0, "MEAN_MOTION_DOT": -1.35e-06, "MEAN_MOTION_DDOT": 0}, "tle": {"line1": "1 41434U 16021A   25359.09808660 -.00000135  00000+0  00000+0 0  9995", "line2": "2 41434  59.9818  39.7747 0060823 230.5129 312.5474  1.00290736 35738"}}, "geometry": {"type": "Point", "coordinates": [-161.80990475208088, 32.48480993611053]}}, {"type": "Feature", "properties": {"norad_id": 41586, "name": "BEIDOU-2 G7 (C03)", "group": "beidou", "lat": 1.3505936805251977, "lon": -161.1368866055496, "alt_km": 35796.41736128335, "timestamp": "2025-12-27T23:26:37.627814+00:00", "meta": {"OBJECT_NAME": "BEIDOU-2 G7 (C03)", "OBJECT_ID": "2016-037A", "EPOCH": "2025-12-27T11:48:49.644864", "MEAN_MOTION": 1.00277493, "ECCENTRICITY": 0.0005217, "INCLINATION": 1.7909, "RA_OF_ASC_NODE": 67.9201, "ARG_OF_PERICENTER": 7.7037, "MEAN_ANOMALY": 308.2431, "EPHEMERIS_TYPE": 0, "CLASSIFICATION_TYPE": "U", "NORAD_CAT_ID": 41586, "ELEMENT_SET_NO": 999, "REV_AT_EPOCH": 516, "BSTAR": 0, "MEAN_MOTION_DOT": -3.32e-06, "MEAN_MOTION_DDOT": 0}, "tle": {"line1": "1 41586U 16037A   25361.49224126 -.00000332  00000+0  00000+0 0  9995", "line2": "2 41586   1.7909  67.9201 0005217   7.7037 308.2431  1.00277493  5162"}}, "geometry": {"type": "Point", "coordinates": [-161.1368866055496, 1.3505936805251977]}}, {"type": "Feature", "properties": {"norad_id": 43001, "name": "BEIDOU-3 M1 (C19)", "group": "beidou", "lat": 56.53526259595685, "lon": 156.59410102601785, "alt_km": 21544.295897956126, "timestamp": "2025-12-27T23:26:37.627830+00:00", "meta": {"OBJECT_NAME": "BEIDOU-3 M1 (C19)", "OBJECT_ID": "2017-069A", "EPOCH": "2025-12-25T03:49:47.920224", "MEAN_MOTION": 1.86231313, "ECCENTRICITY": 0.0009789, "INCLINATION": 56.5365, "RA_OF_ASC_NODE": 68.8241, "ARG_OF_PERICENTER": 302.2681, "MEAN_ANOMALY": 57.6912, "EPHEMERIS_TYPE": 0, "CLASSIFICATION_TYPE": "U", "NORAD_CAT_ID": 43001, "ELEMENT_SET_NO": 999, "REV_AT_EPOCH": 5536, "BSTAR": 0, "MEAN_MOTION_DOT": -2.5e-07, "MEAN_MOTION_DDOT": 0}, "tle": {"line1": "1 43001U 17069A   25359.15958241 -.00000025  00000+0  00000+0 0  9996", "line2": "2 43001  56.5365  68.8241 0009789 302.2681  57.6912  1.86231313 55361"}}, "geometry": {"type": "Point", "coordinates": [156.59410102601785, 56.53526259595685]}}, {"type": "Feature", "properties": {"norad_id": 43002, "name": "BEIDOU-3 M2 (C20)", "group": "beidou", "lat": 39.62340282235408, "lon": -144.37346728105385, "alt_km": 21541.24056698199, "timestamp": "2025-12-27T23:26:37.627841+00:00", "meta": {"OBJECT_NAME": "BEIDOU-3 M2 (C20)", "OBJECT_ID": "2017-069B", "EPOCH": "2025-12-25T15:14:16.903968", "MEAN_MOTION": 1.86231039, "ECCENTRICITY": 0.0006764, "INCLINATION": 56.5366, "RA_OF_ASC_NODE": 68.8439, "ARG_OF_PERICENTER": 327.6836, "MEAN_ANOMALY": 32.3283, "EPHEMERIS_TYPE": 0, "CLASSIFICATION_TYPE": "U", "NORAD_CAT_ID": 43002, "ELEMENT_SET_NO": 999, "REV_AT_EPOCH": 5536, "BSTAR": 0, "MEAN_MOTION_DOT": -2.7e-07, "MEAN_MOTION_DDOT": 0}, "tle": {"line1": "1 43002U 17069B   25359.63491787 -.00000027  00000+0  00000+0 0  9999", "line2": "2 43002  56.5366  68.8439 0006764 327.6836  32.3283  1.86231039 55361"}}, "geometry": {"type": "Point", "coordinates": [-144.37346728105385, 39.62340282235408]}}, {"type": "Feature", "properties": {"norad_id": 43107, "name": "BEIDOU-3 M7 (C27)", "group": "beidou", "lat": -43.3126869128814, "lon": -94.00415929412283, "alt_km": 21537.472913040907, "timestamp": "2025-12-27T23:26:37.627853+00:00", "meta": {"OBJECT_NAME": "BEIDOU-3 M7 (C27)", "OBJECT_ID": "2018-003A", "EPOCH": "2025-12-26T23:43:35.331168", "MEAN_MOTION": 1.86232541, "ECCENTRICITY": 0.00029586, "INCLINATION": 54.484, "RA_OF_ASC_NODE": 308.3202, "ARG_OF_PERICENTER": 66.0283, "MEAN_ANOMALY": 294.0099, "EPHEMERIS_TYPE": 0, "CLASSIFICATION_TYPE": "U", "NORAD_CAT_ID": 43107, "ELEMENT_SET_NO": 999, "REV_AT_EPOCH": 5414, "BSTAR": 0, "MEAN_MOTION_DOT": -5.9e-07, "MEAN_MOTION_DDOT": 0}, "tle": {"line1": "1 43107U 18003A   25360.98860337 -.00000059  00000+0  00000+0 0  9990", "line2": "2 43107  54.4840 308.3202 0002958  66.0283 294.0099  1.86232541 54148"}}, "geometry": {"type": "Point", "coordinates": [-94.00415929412283, -43.3126869128814]}}]}